PROGRESS-MS 32          
1 65586U 25204A   25308.55131963  .00010237  00000+0  18874-3 0  9997
2 65586  51.6336 331.5320 0005028  16.6774 343.4380 15.49747070   277
CYGNUS NG-23            
1 65616U 25208A   25308.55131963  .00010237  00000+0  18874-3 0  9995
2 65616  51.6336 331.5320 0005028  16.6774 343.4380 15.49747070   226
DRAGONFLY               
1 65729U 98067XH  25308.76152545  .00088406  00000+0  10549-2 0  9998
2 65729  51.6310 328.4405 0003889  78.0733 282.0696 15.60292750  7219
1998-067XJ              
1 65730U 98067XJ  25308.45906015  .00266038  00000+0  21415-2 0  9998
2 65730  51.6285 328.6616 0011121  56.8012 303.4050 15.69488856  7181
1998-067XK              
1 65731U 98067XK  25308.79026794  .00063217  00000+0  82327-3 0  9997
2 65731  51.6319 328.6335 0005195  55.0681 305.0799 15.58121065  7211
RSP-03                  
1 65732U 98067XL  25308.32755644  .00078690  00000+0  98401-3 0  9991
2 65732  51.6309 330.7921 0005908  54.9153 305.2393 15.59100954  7150
GHS-01                  
1 65733U 98067XM  25308.30363461  .00104594  00000+0  12127-2 0  9995
2 65733  51.6324 330.6344 0004187  71.8718 288.2732 15.60965600  7155
YOTSUBA-KULOVER         
1 65941U 98067XN  25308.31749561  .00050408  00000+0  77981-3 0  9990
2 65941  51.6323 332.2216 0002626   3.8293 356.2717 15.53557594  3875
BOTAN                   
1 65942U 98067XP  25308.30992354  .00070090  00000+0  10417-2 0  9999
2 65942  51.6322 332.1719 0004782  18.8156 341.3011 15.54512341  3875
E-KAGAKU-1              
1 65943U 98067XQ  25308.31705656  .00050443  00000+0  78006-3 0  9997
2 65943  51.6327 332.2193 0004490   7.8441 352.2619 15.53561869  3872
HTV-X1                  
1 66174U 25241A   25308.55131963  .00010237  00000+0  18874-3 0  9992
2 66174  51.6336 331.5320 0005028  16.6774 343.4380 15.49747070  1452
