CCSDS_OMM_VERS = 2.0
CREATION_DATE  = 
ORIGINATOR     = 

OBJECT_NAME    = PROGRESS-MS 32
OBJECT_ID      = 2025-204A
CENTER_NAME    = EARTH
REF_FRAME      = TEME
TIME_SYSTEM    = UTC
MEAN_ELEMENT_THEORY = SGP/SGP4

EPOCH          = 2025-11-04T13:13:54.016032
MEAN_MOTION    = 15.49747070
ECCENTRICITY   = .00050287
INCLINATION    = 51.6336
RA_OF_ASC_NODE = 331.5320
ARG_OF_PERICENTER = 16.6774
MEAN_ANOMALY   = 343.4380

EPHEMERIS_TYPE = 0
CLASSIFICATION_TYPE = U
NORAD_CAT_ID   = 65586
ELEMENT_SET_NO = 999
REV_AT_EPOCH   = 27
BSTAR          = .18874239E-3
MEAN_MOTION_DOT = .10237E-3
MEAN_MOTION_DDOT = 0

CCSDS_OMM_VERS = 2.0
CREATION_DATE  = 
ORIGINATOR     = 

OBJECT_NAME    = CYGNUS NG-23
OBJECT_ID      = 2025-208A
CENTER_NAME    = EARTH
REF_FRAME      = TEME
TIME_SYSTEM    = UTC
MEAN_ELEMENT_THEORY = SGP/SGP4

EPOCH          = 2025-11-04T13:13:54.016032
MEAN_MOTION    = 15.49747070
ECCENTRICITY   = .00050287
INCLINATION    = 51.6336
RA_OF_ASC_NODE = 331.5320
ARG_OF_PERICENTER = 16.6774
MEAN_ANOMALY   = 343.4380

EPHEMERIS_TYPE = 0
CLASSIFICATION_TYPE = U
NORAD_CAT_ID   = 65616
ELEMENT_SET_NO = 999
REV_AT_EPOCH   = 22
BSTAR          = .18874239E-3
MEAN_MOTION_DOT = .10237E-3
MEAN_MOTION_DDOT = 0

CCSDS_OMM_VERS = 2.0
CREATION_DATE  = 
ORIGINATOR     = 

OBJECT_NAME    = DRAGONFLY
OBJECT_ID      = 1998-067XH
CENTER_NAME    = EARTH
REF_FRAME      = TEME
TIME_SYSTEM    = UTC
MEAN_ELEMENT_THEORY = SGP/SGP4

EPOCH          = 2025-11-04T18:16:35.798880
MEAN_MOTION    = 15.60292750
ECCENTRICITY   = .0003889
INCLINATION    = 51.6310
RA_OF_ASC_NODE = 328.4405
ARG_OF_PERICENTER = 78.0733
MEAN_ANOMALY   = 282.0696

EPHEMERIS_TYPE = 0
CLASSIFICATION_TYPE = U
NORAD_CAT_ID   = 65729
ELEMENT_SET_NO = 999
REV_AT_EPOCH   = 721
BSTAR          = .10549E-2
MEAN_MOTION_DOT = .88406E-3
MEAN_MOTION_DDOT = 0

CCSDS_OMM_VERS = 2.0
CREATION_DATE  = 
ORIGINATOR     = 

OBJECT_NAME    = 1998-067XJ
OBJECT_ID      = 1998-067XJ
CENTER_NAME    = EARTH
REF_FRAME      = TEME
TIME_SYSTEM    = UTC
MEAN_ELEMENT_THEORY = SGP/SGP4

EPOCH          = 2025-11-04T11:01:02.796960
MEAN_MOTION    = 15.69488856
ECCENTRICITY   = .00111218
INCLINATION    = 51.6285
RA_OF_ASC_NODE = 328.6616
ARG_OF_PERICENTER = 56.8012
MEAN_ANOMALY   = 303.4050

EPHEMERIS_TYPE = 0
CLASSIFICATION_TYPE = U
NORAD_CAT_ID   = 65730
ELEMENT_SET_NO = 999
REV_AT_EPOCH   = 718
BSTAR          = .21415221E-2
MEAN_MOTION_DOT = .266038E-2
MEAN_MOTION_DDOT = 0

CCSDS_OMM_VERS = 2.0
CREATION_DATE  = 
ORIGINATOR     = 

OBJECT_NAME    = 1998-067XK
OBJECT_ID      = 1998-067XK
CENTER_NAME    = EARTH
REF_FRAME      = TEME
TIME_SYSTEM    = UTC
MEAN_ELEMENT_THEORY = SGP/SGP4

EPOCH          = 2025-11-04T18:57:59.150016
MEAN_MOTION    = 15.58121065
ECCENTRICITY   = .0005195
INCLINATION    = 51.6319
RA_OF_ASC_NODE = 328.6335
ARG_OF_PERICENTER = 55.0681
MEAN_ANOMALY   = 305.0799

EPHEMERIS_TYPE = 0
CLASSIFICATION_TYPE = U
NORAD_CAT_ID   = 65731
ELEMENT_SET_NO = 999
REV_AT_EPOCH   = 721
BSTAR          = .82327E-3
MEAN_MOTION_DOT = .63217E-3
MEAN_MOTION_DDOT = 0

CCSDS_OMM_VERS = 2.0
CREATION_DATE  = 
ORIGINATOR     = 

OBJECT_NAME    = RSP-03
OBJECT_ID      = 1998-067XL
CENTER_NAME    = EARTH
REF_FRAME      = TEME
TIME_SYSTEM    = UTC
MEAN_ELEMENT_THEORY = SGP/SGP4

EPOCH          = 2025-11-04T07:51:40.876416
MEAN_MOTION    = 15.59100954
ECCENTRICITY   = .00059088
INCLINATION    = 51.6309
RA_OF_ASC_NODE = 330.7921
ARG_OF_PERICENTER = 54.9153
MEAN_ANOMALY   = 305.2393

EPHEMERIS_TYPE = 0
CLASSIFICATION_TYPE = U
NORAD_CAT_ID   = 65732
ELEMENT_SET_NO = 999
REV_AT_EPOCH   = 715
BSTAR          = .98401339E-3
MEAN_MOTION_DOT = .7869E-3
MEAN_MOTION_DDOT = 0

CCSDS_OMM_VERS = 2.0
CREATION_DATE  = 
ORIGINATOR     = 

OBJECT_NAME    = GHS-01
OBJECT_ID      = 1998-067XM
CENTER_NAME    = EARTH
REF_FRAME      = TEME
TIME_SYSTEM    = UTC
MEAN_ELEMENT_THEORY = SGP/SGP4

EPOCH          = 2025-11-04T07:17:14.030304
MEAN_MOTION    = 15.60965600
ECCENTRICITY   = .00041873
INCLINATION    = 51.6324
RA_OF_ASC_NODE = 330.6344
ARG_OF_PERICENTER = 71.8718
MEAN_ANOMALY   = 288.2732

EPHEMERIS_TYPE = 0
CLASSIFICATION_TYPE = U
NORAD_CAT_ID   = 65733
ELEMENT_SET_NO = 999
REV_AT_EPOCH   = 715
BSTAR          = .121272E-2
MEAN_MOTION_DOT = .104594E-2
MEAN_MOTION_DDOT = 0

CCSDS_OMM_VERS = 2.0
CREATION_DATE  = 
ORIGINATOR     = 

OBJECT_NAME    = YOTSUBA-KULOVER
OBJECT_ID      = 1998-067XN
CENTER_NAME    = EARTH
REF_FRAME      = TEME
TIME_SYSTEM    = UTC
MEAN_ELEMENT_THEORY = SGP/SGP4

EPOCH          = 2025-11-04T07:37:11.620704
MEAN_MOTION    = 15.53557594
ECCENTRICITY   = .00026266
INCLINATION    = 51.6323
RA_OF_ASC_NODE = 332.2216
ARG_OF_PERICENTER = 3.8293
MEAN_ANOMALY   = 356.2717

EPHEMERIS_TYPE = 0
CLASSIFICATION_TYPE = U
NORAD_CAT_ID   = 65941
ELEMENT_SET_NO = 999
REV_AT_EPOCH   = 387
BSTAR          = .77981198E-3
MEAN_MOTION_DOT = .50408E-3
MEAN_MOTION_DDOT = 0

CCSDS_OMM_VERS = 2.0
CREATION_DATE  = 
ORIGINATOR     = 

OBJECT_NAME    = BOTAN
OBJECT_ID      = 1998-067XP
CENTER_NAME    = EARTH
REF_FRAME      = TEME
TIME_SYSTEM    = UTC
MEAN_ELEMENT_THEORY = SGP/SGP4

EPOCH          = 2025-11-04T07:26:17.393856
MEAN_MOTION    = 15.54512341
ECCENTRICITY   = .00047823
INCLINATION    = 51.6322
RA_OF_ASC_NODE = 332.1719
ARG_OF_PERICENTER = 18.8156
MEAN_ANOMALY   = 341.3011

EPHEMERIS_TYPE = 0
CLASSIFICATION_TYPE = U
NORAD_CAT_ID   = 65942
ELEMENT_SET_NO = 999
REV_AT_EPOCH   = 387
BSTAR          = .1041658E-2
MEAN_MOTION_DOT = .7009E-3
MEAN_MOTION_DDOT = 0

CCSDS_OMM_VERS = 2.0
CREATION_DATE  = 
ORIGINATOR     = 

OBJECT_NAME    = E-KAGAKU-1
OBJECT_ID      = 1998-067XQ
CENTER_NAME    = EARTH
REF_FRAME      = TEME
TIME_SYSTEM    = UTC
MEAN_ELEMENT_THEORY = SGP/SGP4

EPOCH          = 2025-11-04T07:36:33.686784
MEAN_MOTION    = 15.53561869
ECCENTRICITY   = .00044903
INCLINATION    = 51.6327
RA_OF_ASC_NODE = 332.2193
ARG_OF_PERICENTER = 7.8441
MEAN_ANOMALY   = 352.2619

EPHEMERIS_TYPE = 0
CLASSIFICATION_TYPE = U
NORAD_CAT_ID   = 65943
ELEMENT_SET_NO = 999
REV_AT_EPOCH   = 387
BSTAR          = .78006295E-3
MEAN_MOTION_DOT = .50443E-3
MEAN_MOTION_DDOT = 0

CCSDS_OMM_VERS = 2.0
CREATION_DATE  = 
ORIGINATOR     = 

OBJECT_NAME    = HTV-X1
OBJECT_ID      = 2025-241A
CENTER_NAME    = EARTH
REF_FRAME      = TEME
TIME_SYSTEM    = UTC
MEAN_ELEMENT_THEORY = SGP/SGP4

EPOCH          = 2025-11-04T13:13:54.016032
MEAN_MOTION    = 15.49747070
ECCENTRICITY   = .00050287
INCLINATION    = 51.6336
RA_OF_ASC_NODE = 331.5320
ARG_OF_PERICENTER = 16.6774
MEAN_ANOMALY   = 343.4380

EPHEMERIS_TYPE = 0
CLASSIFICATION_TYPE = U
NORAD_CAT_ID   = 66174
ELEMENT_SET_NO = 999
REV_AT_EPOCH   = 145
BSTAR          = .18874239E-3
MEAN_MOTION_DOT = .10237E-3
MEAN_MOTION_DDOT = 0

